[{"OBJECT_NAME":"STARLINK-11330 [DTC]","OBJECT_ID":"2024-213D","EPOCH":"2026-03-09T06:05:26.331072","MEAN_MOTION":15.69702181,"ECCENTRICITY":0.00013153,"INCLINATION":53.157,"RA_OF_ASC_NODE":43.6387,"ARG_OF_PERICENTER":61.3625,"MEAN_ANOMALY":298.7525,"EPHEMERIS_TYPE":0,"CLASSIFICATION_TYPE":"U","NORAD_CAT_ID":62011,"ELEMENT_SET_NO":999,"REV_AT_EPOCH":7484,"BSTAR":0.0016733384,"MEAN_MOTION_DOT":0.00207209,"MEAN_MOTION_DDOT":0},{"OBJECT_NAME":"GFO","OBJECT_ID":"1998-007A","EPOCH":"2026-03-09T11:35:22.629120","MEAN_MOTION":15.65801864,"ECCENTRICITY":0.00488061,"INCLINATION":108.0178,"RA_OF_ASC_NODE":266.8886,"ARG_OF_PERICENTER":194.2539,"MEAN_ANOMALY":165.7295,"EPHEMERIS_TYPE":0,"CLASSIFICATION_TYPE":"U","NORAD_CAT_ID":25157,"ELEMENT_SET_NO":999,"REV_AT_EPOCH":51081,"BSTAR":0.00066525992,"MEAN_MOTION_DOT":0.00072245,"MEAN_MOTION_DDOT":0}]
